{"type": "FeatureCollection", "features": [ {"type": "Feature", "properties": {"norad_id": 32384, "name": "GPS BIIRM-5 (PRN 29)", "group": "gps-ops", "lat": 19.172409253663194, "lon": 87.68407347361743, "alt_km": 20093.53963087694, "timestamp": "2025-12-11T18:59:46.331897+00:00", "meta": {"OBJECT_NAME": "GPS BIIRM-5 (PRN 29)", "OBJECT_ID": "2007-062A", "EPOCH": "2025-12-11T07:35:29.001696", "MEAN_MOTION": 2.00577198, "ECCENTRICITY": 0.00322342, "INCLINATION": 55.1834, "RA_OF_ASC_NODE": 281.703, "ARG_OF_PERICENTER": 162.5016, "MEAN_ANOMALY": 10.7784, "EPHEMERIS_TYPE": 0, "CLASSIFICATION_TYPE": "U", "NORAD_CAT_ID": 32384, "ELEMENT_SET_NO": 999, "REV_AT_EPOCH": 13174, "BSTAR": 0, "MEAN_MOTION_DOT": -7e-07, "MEAN_MOTION_DDOT": 0}, "tle": {"line1": "1 32384U 07062A   25345.31630789 -.00000070  00000+0  00000+0 0  9997", "line2": "2 32384  55.1834 281.7030 0032234 162.5016  10.7784  2.00577198131746"}}, "geometry": {"type": "Point", "coordinates": [87.68407347361743, 19.172409253663194]}}, {"type": "Feature", "properties": {"norad_id": 32711, "name": "GPS BIIRM-6 (PRN 07)", "group": "gps-ops", "lat": 53.302569043387315, "lon": -129.11816866247645, "alt_km": 20693.61522265877, "timestamp": "2025-12-11T18:59:46.331909+00:00", "meta": {"OBJECT_NAME": "GPS BIIRM-6 (PRN 07)", "OBJECT_ID": "2008-012A", "EPOCH": "2025-12-10T16:18:30.026016", "MEAN_MOTION": 2.00565518, "ECCENTRICITY": 0.0202357, "INCLINATION": 54.4769, "RA_OF_ASC_NODE": 157.4551, "ARG_OF_PERICENTER": 244.9238, "MEAN_ANOMALY": 112.9713, "EPHEMERIS_TYPE": 0, "CLASSIFICATION_TYPE": "U", "NORAD_CAT_ID": 32711, "ELEMENT_SET_NO": 999, "REV_AT_EPOCH": 12997, "BSTAR": 0, "MEAN_MOTION_DOT": 7.9e-07, "MEAN_MOTION_DDOT": 0}, "tle": {"line1": "1 32711U 08012A   25344.67951419  .00000079  00000+0  00000+0 0  9999", "line2": "2 32711  54.4769 157.4551 0202357 244.9238 112.9713  2.00565518129974"}}, "geometry": {"type": "Point", "coordinates": [-129.11816866247645, 53.302569043387315]}}, {"type": "Feature", "properties": {"norad_id": 35752, "name": "GPS BIIRM-8 (PRN 05)", "group": "gps-ops", "lat": 54.55898019143248, "lon": 144.03710573105903, "alt_km": 20045.35536120311, "timestamp": "2025-12-11T18:59:46.331928+00:00", "meta": {"OBJECT_NAME": "GPS BIIRM-8 (PRN 05)", "OBJECT_ID": "2009-043A", "EPOCH": "2025-12-10T15:39:24.141600", "MEAN_MOTION": 2.0056577, "ECCENTRICITY": 0.0051863, "INCLINATION": 56.0896, "RA_OF_ASC_NODE": 34.8654, "ARG_OF_PERICENTER": 81.9471, "MEAN_ANOMALY": 276.3471, "EPHEMERIS_TYPE": 0, "CLASSIFICATION_TYPE": "U", "NORAD_CAT_ID": 35752, "ELEMENT_SET_NO": 999, "REV_AT_EPOCH": 11957, "BSTAR": 0, "MEAN_MOTION_DOT": -9.3e-07, "MEAN_MOTION_DDOT": 0}, "tle": {"line1": "1 35752U 09043A   25344.65236275 -.00000093  00000+0  00000+0 0  9993", "line2": "2 35752  56.0896  34.8654 0051863  81.9471 276.3471  2.00565770119576"}}, "geometry": {"type": "Point", "coordinates": [144.03710573105903, 54.55898019143248]}}, {"type": "Feature", "properties": {"norad_id": 36585, "name": "GPS BIIF-1  (PRN 25)", "group": "gps-ops", "lat": -31.345831863018258, "lon": 62.07913897905682, "alt_km": 20489.35400482602, "timestamp": "2025-12-11T18:59:46.331949+00:00", "meta": {"OBJECT_NAME": "GPS BIIF-1  (PRN 25)", "OBJECT_ID": "2010-022A", "EPOCH": "2025-12-11T05:47:33.116064", "MEAN_MOTION": 2.00553131, "ECCENTRICITY": 0.01260483, "INCLINATION": 54.3003, "RA_OF_ASC_NODE": 216.1344, "ARG_OF_PERICENTER": 65.0548, "MEAN_ANOMALY": 116.9692, "EPHEMERIS_TYPE": 0, "CLASSIFICATION_TYPE": "U", "NORAD_CAT_ID": 36585, "ELEMENT_SET_NO": 999, "REV_AT_EPOCH": 11382, "BSTAR": 0, "MEAN_MOTION_DOT": 1.3e-07, "MEAN_MOTION_DDOT": 0}, "tle": {"line1": "1 36585U 10022A   25345.24135551  .00000013  00000+0  00000+0 0  9999", "line2": "2 36585  54.3003 216.1344 0126048  65.0548 116.9692  2.00553131113823"}}, "geometry": {"type": "Point", "coordinates": [62.07913897905682, -31.345831863018258]}}, {"type": "Feature", "properties": {"norad_id": 38833, "name": "GPS BIIF-3  (PRN 24)", "group": "gps-ops", "lat": -34.825760113939836, "lon": 120.33009365025619, "alt_km": 20332.895280161018, "timestamp": "2025-12-11T18:59:46.331967+00:00", "meta": {"OBJECT_NAME": "GPS BIIF-3  (PRN 24)", "OBJECT_ID": "2012-053A", "EPOCH": "2025-12-09T20:38:00.572640", "MEAN_MOTION": 2.00564945, "ECCENTRICITY": 0.0175755, "INCLINATION": 53.5569, "RA_OF_ASC_NODE": 151.3565, "ARG_OF_PERICENTER": 63.953, "MEAN_ANOMALY": 297.8432, "EPHEMERIS_TYPE": 0, "CLASSIFICATION_TYPE": "U", "NORAD_CAT_ID": 38833, "ELEMENT_SET_NO": 999, "REV_AT_EPOCH": 9564, "BSTAR": 0, "MEAN_MOTION_DOT": 6.8e-07, "MEAN_MOTION_DDOT": 0}, "tle": {"line1": "1 38833U 12053A   25343.85972885  .00000068  00000+0  00000+0 0  9997", "line2": "2 38833  53.5569 151.3565 0175755  63.9530 297.8432  2.00564945 95646"}}, "geometry": {"type": "Point", "coordinates": [120.33009365025619, -34.825760113939836]}}, {"type": "Feature", "properties": {"norad_id": 39166, "name": "GPS BIIF-4  (PRN 27)", "group": "gps-ops", "lat": 41.56469617140328, "lon": -44.4614449980653, "alt_km": 19813.428780378224, "timestamp": "2025-12-11T18:59:46.331980+00:00", "meta": {"OBJECT_NAME": "GPS BIIF-4  (PRN 27)", "OBJECT_ID": "2013-023A", "EPOCH": "2025-12-10T05:20:05.649504", "MEAN_MOTION": 2.00565116, "ECCENTRICITY": 0.0137742, "INCLINATION": 54.6542, "RA_OF_ASC_NODE": 276.6706, "ARG_OF_PERICENTER": 48.5869, "MEAN_ANOMALY": 312.6037, "EPHEMERIS_TYPE": 0, "CLASSIFICATION_TYPE": "U", "NORAD_CAT_ID": 39166, "ELEMENT_SET_NO": 999, "REV_AT_EPOCH": 9209, "BSTAR": 0, "MEAN_MOTION_DOT": -5.9e-07, "MEAN_MOTION_DDOT": 0}, "tle": {"line1": "1 39166U 13023A   25344.22228761 -.00000059  00000+0  00000+0 0  9995", "line2": "2 39166  54.6542 276.6706 0137742  48.5869 312.6037  2.00565116 92099"}}, "geometry": {"type": "Point", "coordinates": [-44.4614449980653, 41.56469617140328]}}, {"type": "Feature", "properties": {"norad_id": 39533, "name": "GPS BIIF-5  (PRN 30)", "group": "gps-ops", "lat": 42.20012052920878, "lon": -161.1044841399061, "alt_km": 20383.02534992636, "timestamp": "2025-12-11T18:59:46.331993+00:00", "meta": {"OBJECT_NAME": "GPS BIIF-5  (PRN 30)", "OBJECT_ID": "2014-008A", "EPOCH": "2025-12-10T17:09:32.568192", "MEAN_MOTION": 2.00574305, "ECCENTRICITY": 0.0079159, "INCLINATION": 53.631, "RA_OF_ASC_NODE": 157.0072, "ARG_OF_PERICENTER": 226.4701, "MEAN_ANOMALY": 132.8778, "EPHEMERIS_TYPE": 0, "CLASSIFICATION_TYPE": "U", "NORAD_CAT_ID": 39533, "ELEMENT_SET_NO": 999, "REV_AT_EPOCH": 8590, "BSTAR": 0, "MEAN_MOTION_DOT": 7.7e-07, "MEAN_MOTION_DDOT": 0}, "tle": {"line1": "1 39533U 14008A   25344.71496028  .00000077  00000+0  00000+0 0  9993", "line2": "2 39533  53.6310 157.0072 0079159 226.4701 132.8778  2.00574305 85902"}}, "geometry": {"type": "Point", "coordinates": [-161.1044841399061, 42.20012052920878]}}, {"type": "Feature", "properties": {"norad_id": 39741, "name": "GPS BIIF-6  (PRN 06)", "group": "gps-ops", "lat": -26.402196874097235, "lon": 177.9389895450681, "alt_km": 20214.72902938648, "timestamp": "2025-12-11T18:59:46.332005+00:00", "meta": {"OBJECT_NAME": "GPS BIIF-6  (PRN 06)", "OBJECT_ID": "2014-026A", "EPOCH": "2025-12-10T23:57:15.344928", "MEAN_MOTION": 2.00561443, "ECCENTRICITY": 0.00391394, "INCLINATION": 56.5843, "RA_OF_ASC_NODE": 338.8441, "ARG_OF_PERICENTER": 318.5788, "MEAN_ANOMALY": 41.1365, "EPHEMERIS_TYPE": 0, "CLASSIFICATION_TYPE": "U", "NORAD_CAT_ID": 39741, "ELEMENT_SET_NO": 999, "REV_AT_EPOCH": 8476, "BSTAR": 0, "MEAN_MOTION_DOT": -8.5e-07, "MEAN_MOTION_DDOT": 0}, "tle": {"line1": "1 39741U 14026A   25344.99809427 -.00000085  00000+0  00000+0 0  9995", "line2": "2 39741  56.5843 338.8441 0039139 318.5788  41.1365  2.00561443 84763"}}, "geometry": {"type": "Point", "coordinates": [177.9389895450681, -26.402196874097235]}}, {"type": "Feature", "properties": {"norad_id": 40105, "name": "GPS BIIF-7  (PRN 09)", "group": "gps-ops", "lat": 24.109287102102908, "lon": -102.16234885825445, "alt_km": 20103.41551484974, "timestamp": "2025-12-11T18:59:46.332017+00:00", "meta": {"OBJECT_NAME": "GPS BIIF-7  (PRN 09)", "OBJECT_ID": "2014-045A", "EPOCH": "2025-12-10T14:05:32.873856", "MEAN_MOTION": 2.00572371, "ECCENTRICITY": 0.00327329, "INCLINATION": 55.2279, "RA_OF_ASC_NODE": 95.9848, "ARG_OF_PERICENTER": 119.8162, "MEAN_ANOMALY": 240.4986, "EPHEMERIS_TYPE": 0, "CLASSIFICATION_TYPE": "U", "NORAD_CAT_ID": 40105, "ELEMENT_SET_NO": 999, "REV_AT_EPOCH": 8229, "BSTAR": 0, "MEAN_MOTION_DOT": 0, "MEAN_MOTION_DDOT": 0}, "tle": {"line1": "1 40105U 14045A   25344.58718604  .00000000  00000+0  00000+0 0  9999", "line2": "2 40105  55.2279  95.9848 0032732 119.8162 240.4986  2.00572371 82291"}}, "geometry": {"type": "Point", "coordinates": [-102.16234885825445, 24.109287102102908]}}, {"type": "Feature", "properties": {"norad_id": 40294, "name": "GPS BIIF-8  (PRN 03)", "group": "gps-ops", "lat": -45.66634023827223, "lon": -99.87350195303964, "alt_km": 20346.29097850718, "timestamp": "2025-12-11T18:59:46.332029+00:00", "meta": {"OBJECT_NAME": "GPS BIIF-8  (PRN 03)", "OBJECT_ID": "2014-068A", "EPOCH": "2025-12-10T11:09:30.250944", "MEAN_MOTION": 2.00564629, "ECCENTRICITY": 0.0060788, "INCLINATION": 56.8561, "RA_OF_ASC_NODE": 38.234, "ARG_OF_PERICENTER": 69.2281, "MEAN_ANOMALY": 291.4749, "EPHEMERIS_TYPE": 0, "CLASSIFICATION_TYPE": "U", "NORAD_CAT_ID": 40294, "ELEMENT_SET_NO": 999, "REV_AT_EPOCH": 8142, "BSTAR": 0, "MEAN_MOTION_DOT": -8.9e-07, "MEAN_MOTION_DDOT": 0}, "tle": {"line1": "1 40294U 14068A   25344.46493346 -.00000089  00000+0  00000+0 0  9991", "line2": "2 40294  56.8561  38.2340 0060788  69.2281 291.4749  2.00564629 81424"}}, "geometry": {"type": "Point", "coordinates": [-99.87350195303964, -45.66634023827223]}}]}